OBJECT_NAME,OBJECT_ID,EPOCH,MEAN_MOTION,ECCENTRICITY,INCLINATION,RA_OF_ASC_NODE,ARG_OF_PERICENTER,MEAN_ANOMALY,EPHEMERIS_TYPE,CLASSIFICATION_TYPE,NORAD_CAT_ID,ELEMENT_SET_NO,REV_AT_EPOCH,BSTAR,MEAN_MOTION_DOT,MEAN_MOTION_DDOT
SL-12 R/B(2),1985-042D,2026-07-14T11:15:29.058048,14.22010809,.00373103,71.1066,179.8755,287.2413,201.8033,0,U,15772,999,13241,.11157892E-4,-.23E-6,0
SL-14 R/B,1985-069B,2026-07-14T16:48:10.088928,14.86534936,.0020014,82.5263,265.4919,128.8170,231.4837,0,U,15945,999,19170,.21099E-4,.212E-5,0
SL-16 R/B,1985-097B,2026-07-14T12:46:49.491264,14.16612570,.00056109,71.0008,233.5079,53.0778,52.3058,0,U,16182,999,10519,.79059466E-4,.11E-5,0
SL-14 R/B,1986-006B,2026-07-14T20:14:51.050688,14.86968159,.0075434,82.5282,140.0883,210.0304,149.6578,0,U,16496,999,16810,.22531E-4,.239E-5,0
COSMOS 1743,1986-034A,2026-07-14T18:36:32.788800,15.69584224,.0005392,82.5284,299.3434,177.7066,182.4221,0,U,16719,999,20011,.31712E-3,.37565E-3,0
SL-14 R/B,1986-046B,2026-07-14T20:01:09.389280,14.85690396,.0023494,82.4839,320.0518,164.1915,196.0040,0,U,16792,999,14528,.24718E-4,.24E-5,0
SL-14 R/B,1986-055B,2026-07-14T13:21:44.889120,14.85740024,.0017303,82.5202,7.3965,272.5606,152.5886,0,U,16882,999,13820,.21817E-4,.214E-5,0
AJISAI (EGS),1986-061A,2026-07-14T20:31:36.288768,12.44516654,.0011093,50.0106,62.3167,250.9932,240.9510,0,U,16908,999,48383,-.9877E-4,-.111E-5,0
SL-14 R/B,1987-024B,2026-07-14T19:42:41.825088,14.86231560,.0017782,82.5297,333.2753,195.0498,165.0192,0,U,17567,999,10701,.22698E-4,.224E-5,0
COSMOS 1833,1987-027A,2026-07-14T20:35:03.043104,14.13066531,.0024232,70.9213,58.7099,9.2465,350.9097,0,U,17589,999,2828,.73581E-4,.9E-6,0
SL-16 R/B,1987-027B,2026-07-14T19:32:53.403072,14.17173374,.0007142,71.0032,8.6081,282.0452,77.9871,0,U,17590,999,3335,.62008E-4,.77E-6,0
SL-14 R/B,1987-038B,2026-07-14T09:50:44.097504,14.85461149,.00208101,82.5012,177.4292,104.6011,255.7514,0,U,17912,999,9804,.21728785E-4,.213E-5,0
COSMOS 1844,1987-041A,2026-07-14T19:50:43.141344,14.14580680,.0031361,70.8998,126.0065,195.7966,164.2180,0,U,17973,999,2156,.72458E-4,.91E-6,0
SL-14 R/B,1987-055B,2026-07-14T13:36:09.935424,14.85726770,.0019454,82.4973,229.4178,317.2918,42.6785,0,U,18153,999,8877,.20602E-4,.203E-5,0
COSMOS 1867,1987-060A,2026-07-14T15:48:06.278400,14.31518447,.0017128,65.0119,311.1232,281.9925,77.9240,0,U,18187,999,3811,.13419E-4,-.65E-6,0
SL-14 R/B,1988-001B,2026-07-14T18:32:50.886816,14.85626644,.0018133,82.5120,75.8201,173.1769,186.9697,0,U,18749,999,6089,.20512E-4,.202E-5,0
COSMOS 1933,1988-020A,2026-07-14T20:09:59.860224,15.18887268,.0005875,82.5141,125.0497,108.1736,252.0138,0,U,18958,999,6952,.80783E-4,.1717E-4,0
SL-3 R/B,1988-032B,2026-07-14T19:25:44.963616,15.21029672,.0026467,97.5270,178.8282,147.0386,213.2506,0,U,19046,999,7142,.97322E-4,.2107E-4,0
SL-16 R/B,1988-039B,2026-07-14T07:39:40.669344,14.19631365,.0020675,71.0124,160.7870,150.7825,209.4462,0,U,19120,999,97635,-.10380398E-4,-.7E-6,0
COSMOS 1953,1988-050A,2026-07-14T14:46:00.720768,15.30333177,.0011595,82.5058,30.3650,41.7729,318.4394,0,U,19210,999,5718,.15229E-3,.4509E-4,0
SL-8 R/B,1988-053B,2026-07-14T14:48:11.145888,14.38978113,.0019705,74.0459,238.4953,24.2594,93.5666,0,U,19257,999,99485,.49806E-4,.128E-5,0
COSMOS 1975,1988-093A,2026-07-14T19:52:37.813152,15.29659226,.0012535,82.5197,349.8883,83.5830,276.6837,0,U,19573,999,3883,.12953E-3,.3764E-4,0
SL-14 R/B,1988-093B,2026-07-14T18:16:12.679104,14.85759940,.0020059,82.5316,282.7593,341.7972,136.5487,0,U,19574,999,1988,.19955E-4,.198E-5,0
SL-16 R/B,1988-102B,2026-07-14T13:15:46.423296,14.16166708,.0014344,70.9978,244.5592,186.5254,173.5685,0,U,19650,999,94485,-.46752E-4,-.14E-5,0
INTERCOSMOS 24,1989-080A,2026-07-14T15:41:54.574368,12.59691868,.1187198,82.6049,21.7667,358.2019,1.4973,0,U,20261,999,68278,.3935E-4,.148E-5,0
SL-14 R/B,1989-080C,2026-07-14T18:18:02.160000,12.50578429,.1228688,82.5934,91.5902,254.2814,91.9672,0,U,20262,999,67603,.19938E-4,.68E-6,0
DELTA 1 R/B,1989-089B,2026-07-14T12:46:35.293152,14.50747601,.00706372,97.0634,22.7145,82.0383,278.8824,0,U,20323,999,91412,.42101348E-4,.136E-5,0
ARIANE 40 R/B,1990-005H,2026-07-14T18:29:23.882784,14.39940559,.0010239,98.2946,252.5267,175.2570,184.8718,0,U,20443,999,91109,.4388E-4,.96E-6,0
DELTA 2 R/B(1),1990-008B,2026-07-14T07:45:51.984576,15.73466303,.00594225,35.5994,53.5048,7.8673,352.2989,0,U,20453,999,94597,.46336026E-3,.75382E-3,0
COSMOS 2058,1990-010A,2026-07-14T19:07:18.437952,15.12155088,.0007922,82.4672,282.1252,251.7193,108.3176,0,U,20465,999,96144,.92067E-4,.1617E-4,0
SL-14 R/B,1990-010B,2026-07-14T19:39:53.811648,14.83662954,.0018363,82.5035,147.9954,238.6058,121.3361,0,U,20466,999,94733,.20173E-4,.191E-5,0
