SL-12 R/B(2)            
1 15772U 85042D   26195.46908632 -.00000023  00000+0  11158-4 0  9997
2 15772  71.1066 179.8755 0037310 287.2413 201.8033 14.22010809132413
SL-14 R/B               
1 15945U 85069B   26195.70011677  .00000212  00000+0  21099-4 0  9993
2 15945  82.5263 265.4919 0020014 128.8170 231.4837 14.86534936191707
SL-16 R/B               
1 16182U 85097B   26195.53251726  .00000110  00000+0  79059-4 0  9996
2 16182  71.0008 233.5079 0005610  53.0778  52.3058 14.16612570105199
SL-14 R/B               
1 16496U 86006B   26195.84364642  .00000239  00000+0  22531-4 0  9996
2 16496  82.5282 140.0883 0075434 210.0304 149.6578 14.86968159168105
COSMOS 1743             
1 16719U 86034A   26195.77537950  .00037565  00000+0  31712-3 0  9993
2 16719  82.5284 299.3434 0005392 177.7066 182.4221 15.69584224200112
SL-14 R/B               
1 16792U 86046B   26195.83413645  .00000240  00000+0  24718-4 0  9997
2 16792  82.4839 320.0518 0023494 164.1915 196.0040 14.85690396145280
SL-14 R/B               
1 16882U 86055B   26195.55676955  .00000214  00000+0  21817-4 0  9999
2 16882  82.5202   7.3965 0017303 272.5606 152.5886 14.85740024138202
AJISAI (EGS)            
1 16908U 86061A   26195.85528112 -.00000111  00000+0 -98770-4 0  9999
2 16908  50.0106  62.3167 0011093 250.9932 240.9510 12.44516654483832
SL-14 R/B               
1 17567U 87024B   26195.82131742  .00000224  00000+0  22698-4 0  9996
2 17567  82.5297 333.2753 0017782 195.0498 165.0192 14.86231560107017
COSMOS 1833             
1 17589U 87027A   26195.85767411  .00000090  00000+0  73581-4 0  9992
2 17589  70.9213  58.7099 0024232   9.2465 350.9097 14.13066531 28284
SL-16 R/B               
1 17590U 87027B   26195.81450698  .00000077  00000+0  62008-4 0  9993
2 17590  71.0032   8.6081 0007142 282.0452  77.9871 14.17173374 33358
SL-14 R/B               
1 17912U 87038B   26195.41023261  .00000213  00000+0  21729-4 0  9998
2 17912  82.5012 177.4292 0020810 104.6011 255.7514 14.85461149 98049
COSMOS 1844             
1 17973U 87041A   26195.82688821  .00000091  00000+0  72458-4 0  9992
2 17973  70.8998 126.0065 0031361 195.7966 164.2180 14.14580680 21560
SL-14 R/B               
1 18153U 87055B   26195.56678166  .00000203  00000+0  20602-4 0  9999
2 18153  82.4973 229.4178 0019454 317.2918  42.6785 14.85726770 88779
COSMOS 1867             
1 18187U 87060A   26195.65840600 -.00000065  00000+0  13419-4 0  9991
2 18187  65.0119 311.1232 0017128 281.9925  77.9240 14.31518447 38117
SL-14 R/B               
1 18749U 88001B   26195.77281119  .00000202  00000+0  20512-4 0  9992
2 18749  82.5120  75.8201 0018133 173.1769 186.9697 14.85626644 60897
COSMOS 1933             
1 18958U 88020A   26195.84027616  .00001717  00000+0  80783-4 0  9991
2 18958  82.5141 125.0497 0005875 108.1736 252.0138 15.18887268 69520
SL-3 R/B                
1 19046U 88032B   26195.80954819  .00002107  00000+0  97322-4 0  9994
2 19046  97.5270 178.8282 0026467 147.0386 213.2506 15.21029672 71420
SL-16 R/B               
1 19120U 88039B   26195.31922071 -.00000070  00000+0 -10380-4 0  9993
2 19120  71.0124 160.7870 0020675 150.7825 209.4462 14.19631365976353
COSMOS 1953             
1 19210U 88050A   26195.61528612  .00004509  00000+0  15229-3 0  9997
2 19210  82.5058  30.3650 0011595  41.7729 318.4394 15.30333177 57187
SL-8 R/B                
1 19257U 88053B   26195.61679567  .00000128  00000+0  49806-4 0  9999
2 19257  74.0459 238.4953 0019705  24.2594  93.5666 14.38978113994852
COSMOS 1975             
1 19573U 88093A   26195.82821543  .00003764  00000+0  12953-3 0  9991
2 19573  82.5197 349.8883 0012535  83.5830 276.6837 15.29659226 38833
SL-14 R/B               
1 19574U 88093B   26195.76125786  .00000198  00000+0  19955-4 0  9999
2 19574  82.5316 282.7593 0020059 341.7972 136.5487 14.85759940 19880
SL-16 R/B               
1 19650U 88102B   26195.55262064 -.00000140  00000+0 -46752-4 0  9997
2 19650  70.9978 244.5592 0014344 186.5254 173.5685 14.16166708944856
INTERCOSMOS 24          
1 20261U 89080A   26195.65410387  .00000148  00000+0  39350-4 0  9999
2 20261  82.6049  21.7667 1187198 358.2019   1.4973 12.59691868682784
SL-14 R/B               
1 20262U 89080C   26195.76252500  .00000068  00000+0  19938-4 0  9994
2 20262  82.5934  91.5902 1228688 254.2814  91.9672 12.50578429676031
DELTA 1 R/B             
1 20323U 89089B   26195.53235293  .00000136  00000+0  42101-4 0  9990
2 20323  97.0634  22.7145 0070637  82.0383 278.8824 14.50747601914120
ARIANE 40 R/B           
1 20443U 90005H   26195.77041531  .00000096  00000+0  43880-4 0  9999
2 20443  98.2946 252.5267 0010239 175.2570 184.8718 14.39940559911090
DELTA 2 R/B(1)          
1 20453U 90008B   26195.32351834  .00075382  00000+0  46336-3 0  9992
2 20453  35.5994  53.5048 0059422   7.8673 352.2989 15.73466303945979
COSMOS 2058             
1 20465U 90010A   26195.79674118  .00001617  00000+0  92067-4 0  9995
2 20465  82.4672 282.1252 0007922 251.7193 108.3176 15.12155088961444
SL-14 R/B               
1 20466U 90010B   26195.81937282  .00000191  00000+0  20173-4 0  9998
2 20466  82.5035 147.9954 0018363 238.6058 121.3361 14.83662954947336
